IRIDIUM 112             
1 41925U 17003J   26009.13109048  .00000277  00000+0  91734-4 0  9998
2 41925  86.4000 154.7769 0001877  98.3363 261.8045 14.34217996470479
IRIDIUM 111             
1 41926U 17003K   26009.11840573  .00000248  00000+0  81630-4 0  9994
2 41926  86.4004 154.8492 0002068  96.3632 263.7800 14.34217570470454
IRIDIUM 113             
1 42803U 17039A   26008.95883366  .00000017  00000+0 -11700-5 0  9993
2 42803  86.3955  28.7128 0002110  95.9880 264.1556 14.34217602448360
IRIDIUM 123             
1 42804U 17039B   26008.86077596  .00000021  00000+0  59623-6 0  9995
2 42804  86.3940  60.2377 0002432  97.6926 262.4546 14.34217557447110
IRIDIUM 120             
1 42805U 17039C   26008.95249134  .00000015  00000+0 -17709-5 0  9997
2 42805  86.3940  28.5186 0002196  84.7715 275.3731 14.34217435448357
IRIDIUM 115             
1 42806U 17039D   26009.00429806  .00000344  00000+0  96139-4 0  9998
2 42806  86.4481  28.6036 0002747  89.7838 270.3677 14.43282339451305
IRIDIUM 118             
1 42807U 17039E   26008.68318256 -.00000008  00000+0 -10048-4 0  9992
2 42807  86.3939  60.3107 0002019  98.8882 261.2543 14.34217392447085
IRIDIUM 117             
1 42808U 17039F   26008.98128480  .00000268  00000+0  88604-4 0  9993
2 42808  86.3942  60.1454 0002351  97.5796 262.5667 14.34217473447151
